[{"OBJECT_NAME":"TYVAK-0173","OBJECT_ID":"2021-059P","EPOCH":"2026-03-09T20:34:33.037248","MEAN_MOTION":14.81501003,"ECCENTRICITY":0.0009326,"INCLINATION":96.0076,"RA_OF_ASC_NODE":169.9257,"ARG_OF_PERICENTER":18.4576,"MEAN_ANOMALY":341.6978,"EPHEMERIS_TYPE":0,"CLASSIFICATION_TYPE":"U","NORAD_CAT_ID":48892,"ELEMENT_SET_NO":999,"REV_AT_EPOCH":25353,"BSTAR":0.00038359729,"MEAN_MOTION_DOT":2.977e-5,"MEAN_MOTION_DDOT":0},{"OBJECT_NAME":"SL-8 DEB","OBJECT_ID":"2002-054E","EPOCH":"2026-03-09T02:36:59.276160","MEAN_MOTION":14.81701643,"ECCENTRICITY":0.0028156,"INCLINATION":98.241,"RA_OF_ASC_NODE":298.4882,"ARG_OF_PERICENTER":30.5083,"MEAN_ANOMALY":329.7759,"EPHEMERIS_TYPE":0,"CLASSIFICATION_TYPE":"U","NORAD_CAT_ID":27769,"ELEMENT_SET_NO":999,"REV_AT_EPOCH":24282,"BSTAR":0.00071249751,"MEAN_MOTION_DOT":5.596e-5,"MEAN_MOTION_DDOT":0}]
